[{"OBJECT_NAME":"CURIUM ONE","OBJECT_ID":"2024-128H","EPOCH":"2026-03-09T16:29:14.303904","MEAN_MOTION":15.10847276,"ECCENTRICITY":0.00508907,"INCLINATION":61.979,"RA_OF_ASC_NODE":197.7537,"ARG_OF_PERICENTER":110.7183,"MEAN_ANOMALY":249.9377,"EPHEMERIS_TYPE":0,"CLASSIFICATION_TYPE":"U","NORAD_CAT_ID":60242,"ELEMENT_SET_NO":999,"REV_AT_EPOCH":9141,"BSTAR":0.00074106619,"MEAN_MOTION_DOT":0.00012574,"MEAN_MOTION_DDOT":0},{"OBJECT_NAME":"CZ-2C DEB","OBJECT_ID":"2013-035C","EPOCH":"2026-03-09T23:28:11.376480","MEAN_MOTION":14.97090669,"ECCENTRICITY":0.00414021,"INCLINATION":98.2221,"RA_OF_ASC_NODE":340.898,"ARG_OF_PERICENTER":245.2603,"MEAN_ANOMALY":114.4306,"EPHEMERIS_TYPE":0,"CLASSIFICATION_TYPE":"U","NORAD_CAT_ID":39204,"ELEMENT_SET_NO":999,"REV_AT_EPOCH":67473,"BSTAR":0.0018072367,"MEAN_MOTION_DOT":0.00021197,"MEAN_MOTION_DDOT":0}]
